{
  "id": 1679728389,
  "type": "Feature",
  "properties": {
    "edtf:cessation": "2018-07-23T18:21:22",
    "edtf:inception": "2018-07-23~",
    "flysfo:airline": "BF",
    "flysfo:date": "2018-07-23",
    "flysfo:event": "A",
    "flysfo:flight_number": "BF711",
    "flysfo:journey": "PPT-SFO",
    "geom:area": 0,
    "geom:bbox": "-149.617144,-17.573463,-122.370943,37.617990",
    "geom:latitude": 10.0222635,
    "geom:longitude": -135.9940435,
    "iata:airline": "BF",
    "icao:aircraft": "A359",
    "icao:airline": "FBU",
    "mz:is_current": -1,
    "sfomuseum:aircraft_id": 1377564293,
    "sfomuseum:airline_id": 1377649073,
    "sfomuseum:arrival_id": 102527513,
    "sfomuseum:departure_id": 102558779,
    "sfomuseum:flight_id": "20180723-A-FBU-711",
    "sfomuseum:flight_number": [
      "BF711", 
      "FBU711"
    ],
    "sfomuseum:placetype": "flight",
    "src:geom": "sfonoise",
    "wof:belongsto": [
      102191575, 
      102087579, 
      85688637, 
      1159157271, 
      85633793, 
      1679728389, 
      85922583, 
      102527513
    ],
    "wof:country": "US",
    "wof:created": 1583188374,
    "wof:geomhash": "cb635fc427df70f0d5f88d1f39ad4ded",
    "wof:hierarchy": [
      {
        "building_id": 1159157271,
        "campus_id": 102527513,
        "concourse_id": -1,
        "continent_id": 102191575,
        "country_id": 85633793,
        "county_id": 102087579,
        "event_id": 1679728389,
        "locality_id": 85922583,
        "neighbourhood_id": -1,
        "region_id": 85688637,
        "venue_id": -1,
        "wing_id": -1
      }
    ],
    "wof:id": 1679728389,
    "wof:lastmodified": 1583188374,
    "wof:name": "FBU711 (PPT-SFO)",
    "wof:parent_id": -1,
    "wof:placetype": "event",
    "wof:repo": "sfomuseum-data-flights-2018",
    "wof:superseded_by": [],
    "wof:supersedes": []
  },
  "bbox": [
    -149.617144, 
    -17.573463, 
    -122.370943, 
    37.61799
  ],
  "geometry": {"coordinates":[[-149.617144,-17.573463],[-122.370943,37.61799]],"type":"MultiPoint"}
}
