{
  "id": 1695878701,
  "type": "Feature",
  "properties": {
    "edtf:cessation": "2018-11-10T15:33:53",
    "edtf:inception": "2018-11-10~",
    "flysfo:airline": "5Y",
    "flysfo:date": "2018-11-10",
    "flysfo:event": "A",
    "flysfo:flight_number": "5Y8574",
    "flysfo:journey": "LGB-SFO",
    "geom:area": 0,
    "geom:bbox": "-122.370943,33.814039,-118.148993,37.617990",
    "geom:latitude": 35.7160145,
    "geom:longitude": -120.259968,
    "iata:airline": "5Y",
    "icao:aircraft": "B763",
    "icao:airline": "GTI",
    "mz:is_current": -1,
    "sfomuseum:aircraft_id": 1159289965,
    "sfomuseum:airline_id": 1159283935,
    "sfomuseum:arrival_id": 102527513,
    "sfomuseum:departure_id": 102528985,
    "sfomuseum:flight_id": "20181110-A-GTI-8574",
    "sfomuseum:flight_number": [
      "5Y8574", 
      "GTI8574"
    ],
    "sfomuseum:placetype": "flight",
    "src:geom": "sfonoise",
    "wof:belongsto": [
      102191575, 
      1695878701, 
      85922583, 
      102087579, 
      1159157271, 
      85633793, 
      85688637, 
      102527513
    ],
    "wof:country": "US",
    "wof:created": 1583191282,
    "wof:geomhash": "9eec8aef23fa16d55a8c3ae494470e8a",
    "wof:hierarchy": [
      {
        "building_id": 1159157271,
        "campus_id": 102527513,
        "concourse_id": -1,
        "continent_id": 102191575,
        "country_id": 85633793,
        "county_id": 102087579,
        "event_id": 1695878701,
        "locality_id": 85922583,
        "neighbourhood_id": -1,
        "region_id": 85688637,
        "venue_id": -1,
        "wing_id": -1
      }
    ],
    "wof:id": 1695878701,
    "wof:lastmodified": 1583191282,
    "wof:name": "GTI8574 (LGB-SFO)",
    "wof:parent_id": -1,
    "wof:placetype": "event",
    "wof:repo": "sfomuseum-data-flights-2018",
    "wof:superseded_by": [],
    "wof:supersedes": []
  },
  "bbox": [
    -122.370943, 
    33.814039, 
    -118.148993, 
    37.61799
  ],
  "geometry": {"coordinates":[[-118.148993,33.814039],[-122.370943,37.61799]],"type":"MultiPoint"}
}
